ONEWEB-0158             
1 48054U 21025N   25060.52342683  .00003446  00000+0  93878-2 0  9990
2 48054  87.8893  54.1596 0001673  89.4267 270.7054 13.13552747191586
ONEWEB-0157             
1 48055U 21025P   25060.54747122 -.00002529  00000+0 -69673-2 0  9999
2 48055  87.8892  54.1662 0001795  70.8282 289.3041 13.13428376191533
ONEWEB-0162             
1 48056U 21025Q   25060.51098597 -.00003586  00000+0 -98649-2 0  9991
2 48056  87.8885  54.1657 0001538  87.8481 272.2824 13.13427603191479
ONEWEB-0155             
1 48057U 21025R   25060.53142132  .00000221  00000+0  57034-3 0  9994
2 48057  87.8891  54.1762 0001958  82.5538 277.5814 13.13521008191645
ONEWEB-0149             
1 48058U 21025S   25059.94281171 -.00000414  00000+0 -11706-2 0  9996
2 48058  87.8891  54.2887 0001608  89.5371 270.5942 13.13388533191378
ONEWEB-0148             
1 48059U 21025T   25060.05997564  .00004123  00000+0  11232-1 0  9993
2 48059  87.8893  54.2855 0000902  80.7375 279.3856 13.13587029191506
ONEWEB-0160             
1 48060U 21025U   25060.45685898  .00000402  00000+0  10663-2 0  9997
2 48060  87.8893  54.2023 0002282 108.2054 251.9323 13.13507750191506
ONEWEB-0163             
1 48061U 21025V   25060.06157838  .00005472  00000+0  14918-1 0  9991
2 48061  87.8897  54.2666 0001943  75.6525 284.4820 13.13572862191584
